{
  "norad_id": 67627,
  "name": "STARLINK-36502",
  "history": [
    {
      "epoch": "2026-03-28T06:02:55.714272Z",
      "apogee_km": 481.5652675219353,
      "perigee_km": 479.45417606096817,
      "latitude_deg": 1.0173292900204939e-05,
      "longitude_deg": 118.44721659499231,
      "height_km": 480.3438748469592,
      "semi_major_axis_km": 6858.6467217914515,
      "eccentricity": 0.0001539,
      "inclination_deg": 43.0017,
      "raan_deg": 34.8545,
      "arg_perigee_deg": 266.8913,
      "mean_anomaly_deg": 93.1763,
      "mean_motion_rev_day": 15.28428445
    },
    {
      "epoch": "2026-03-29T04:00:30.278304Z",
      "apogee_km": 487.8092220708504,
      "perigee_km": 474.1691637236563,
      "latitude_deg": 1.2914334128272041e-05,
      "longitude_deg": 142.97625373950308,
      "height_km": 483.99908324051444,
      "semi_major_axis_km": 6859.1261928972535,
      "eccentricity": 0.0009943,
      "inclination_deg": 43.001,
      "raan_deg": 29.6794,
      "arg_perigee_deg": 241.7198,
      "mean_anomaly_deg": 118.2651,
      "mean_motion_rev_day": 15.28268186
    },
    {
      "epoch": "2026-03-30T04:00:01.999584Z",
      "apogee_km": 484.2597957059388,
      "perigee_km": 482.0682961518687,
      "latitude_deg": 41.62778710064598,
      "longitude_deg": -114.92097657122768,
      "height_km": 486.98665827140735,
      "semi_major_axis_km": 6861.3010459289035,
      "eccentricity": 0.0001597,
      "inclination_deg": 43.0016,
      "raan_deg": 24.0387,
      "arg_perigee_deg": 260.4796,
      "mean_anomaly_deg": 203.3484,
      "mean_motion_rev_day": 15.27541612
    },
    {
      "epoch": "2026-03-30T06:00:02.000160Z",
      "apogee_km": 484.3361027670353,
      "perigee_km": 482.06019789767015,
      "latitude_deg": -15.345379577980536,
      "longitude_deg": -57.06905080871167,
      "height_km": 485.64295536397657,
      "semi_major_axis_km": 6861.335150332353,
      "eccentricity": 0.00016585,
      "inclination_deg": 43.0018,
      "raan_deg": 23.5679,
      "arg_perigee_deg": 262.9615,
      "mean_anomaly_deg": 299.6749,
      "mean_motion_rev_day": 15.27530223
    },
    {
      "epoch": "2026-03-30T14:00:03.000384Z",
      "apogee_km": 484.21709101664237,
      "perigee_km": 481.87975958965944,
      "latitude_deg": -35.474382269309494,
      "longitude_deg": -146.84538808815012,
      "height_km": 492.1217678903497,
      "semi_major_axis_km": 6861.185425303151,
      "eccentricity": 0.00017033,
      "inclination_deg": 43.002,
      "raan_deg": 21.683,
      "arg_perigee_deg": 254.6784,
      "mean_anomaly_deg": 343.2423,
      "mean_motion_rev_day": 15.27580224
    },
    {
      "epoch": "2026-03-30T20:00:01.999872Z",
      "apogee_km": 484.2291060589678,
      "perigee_km": 481.98273512676496,
      "latitude_deg": 3.862582582777335,
      "longitude_deg": 67.91647698619659,
      "height_km": 482.3177562094062,
      "semi_major_axis_km": 6861.242920592866,
      "eccentricity": 0.0001637,
      "inclination_deg": 43.0019,
      "raan_deg": 20.273,
      "arg_perigee_deg": 256.8648,
      "mean_anomaly_deg": 277.4344,
      "mean_motion_rev_day": 15.27561023
    },
    {
      "epoch": "2026-03-31T20:00:01.999008Z",
      "apogee_km": 484.2116397349155,
      "perigee_km": 482.0078072873239,
      "latitude_deg": -42.35730406862257,
      "longitude_deg": 168.93406354058462,
      "height_km": 495.05355282872944,
      "semi_major_axis_km": 6861.246723511119,
      "eccentricity": 0.0001606,
      "inclination_deg": 43.0021,
      "raan_deg": 14.625,
      "arg_perigee_deg": 267.2431,
      "mean_anomaly_deg": 12.747,
      "mean_motion_rev_day": 15.27559753
    },
    {
      "epoch": "2026-04-01T20:00:01.999008Z",
      "apogee_km": 484.1909362212991,
      "perigee_km": 481.8197254317647,
      "latitude_deg": 17.273218849819635,
      "longitude_deg": -101.85520953591852,
      "height_km": 482.7067897809631,
      "semi_major_axis_km": 6861.142330826531,
      "eccentricity": 0.0001728,
      "inclination_deg": 43.0024,
      "raan_deg": 8.9788,
      "arg_perigee_deg": 268.5862,
      "mean_anomaly_deg": 117.1318,
      "mean_motion_rev_day": 15.27594616
    },
    {
      "epoch": "2026-04-02T20:00:01.999008Z",
      "apogee_km": 484.2771489567931,
      "perigee_km": 482.0691793459682,
      "latitude_deg": 30.855611376403235,
      "longitude_deg": 12.572148489654792,
      "height_km": 484.47611974838435,
      "semi_major_axis_km": 6861.31016415138,
      "eccentricity": 0.0001609,
      "inclination_deg": 43.0026,
      "raan_deg": 3.3308,
      "arg_perigee_deg": 253.6052,
      "mean_anomaly_deg": 237.8699,
      "mean_motion_rev_day": 15.27538567
    },
    {
      "epoch": "2026-04-02T22:00:01.999584Z",
      "apogee_km": 484.1520616049029,
      "perigee_km": 482.22636179032725,
      "latitude_deg": -31.81270297188327,
      "longitude_deg": 63.008699427954184,
      "height_km": 491.06360327767635,
      "semi_major_axis_km": 6861.326211697615,
      "eccentricity": 0.00014033,
      "inclination_deg": 43.0025,
      "raan_deg": 2.8614,
      "arg_perigee_deg": 258.0144,
      "mean_anomaly_deg": 332.2639,
      "mean_motion_rev_day": 15.27533208
    },
    {
      "epoch": "2026-04-03T00:00:02.999808Z",
      "apogee_km": 484.1187512551669,
      "perigee_km": 482.258097026649,
      "latitude_deg": -20.626337814525087,
      "longitude_deg": 147.37367665613868,
      "height_km": 487.43520848589515,
      "semi_major_axis_km": 6861.325424140908,
      "eccentricity": 0.00013559,
      "inclination_deg": 43.0024,
      "raan_deg": 2.3911,
      "arg_perigee_deg": 264.0036,
      "mean_anomaly_deg": 65.1354,
      "mean_motion_rev_day": 15.27533471
    },
    {
      "epoch": "2026-04-04T10:39:35.432640Z",
      "apogee_km": 484.07700462915363,
      "perigee_km": 481.8704714158057,
      "latitude_deg": 4.089226451776026e-05,
      "longitude_deg": 1.5712771345720065,
      "height_km": 482.76866919045534,
      "semi_major_axis_km": 6861.110738022479,
      "eccentricity": 0.0001608,
      "inclination_deg": 43.0022,
      "raan_deg": 354.2329,
      "arg_perigee_deg": 269.0743,
      "mean_anomaly_deg": 90.9925,
      "mean_motion_rev_day": 15.27605167
    },
    {
      "epoch": "2026-04-05T10:11:56.134464Z",
      "apogee_km": 484.20213232255537,
      "perigee_km": 481.8438144165093,
      "latitude_deg": 3.817301222790902e-05,
      "longitude_deg": 1.981299525305526,
      "height_km": 482.99583069134474,
      "semi_major_axis_km": 6861.159973369532,
      "eccentricity": 0.00017186,
      "inclination_deg": 43.0005,
      "raan_deg": 348.6959,
      "arg_perigee_deg": 260.4371,
      "mean_anomaly_deg": 99.6287,
      "mean_motion_rev_day": 15.27588724
    }
  ]
}